{
  "type": "FeatureCollection",
  "features": [
    {
      "type": "Feature",
      "properties": {
        "norad_id": 46277,
        "name": "NEMO-HD",
        "group": "resource",
        "lat": 78.6124198513813,
        "lon": -86.3951600918416,
        "alt_km": 436.7299399431886,
        "timestamp": "2025-12-21T14:40:47.568504+00:00",
        "meta_object_name": "NEMO-HD",
        "meta_object_id": "2020-061F",
        "meta_epoch": "2025-12-21T06:27:28.167264",
        "meta_mean_motion": 15.40489229,
        "meta_eccentricity": 0.00013342,
        "meta_inclination": 97.2199,
        "meta_ra_of_asc_node": 54.2589,
        "meta_arg_of_pericenter": 52.1488,
        "meta_mean_anomaly": 307.9879,
        "meta_ephemeris_type": 0,
        "meta_classification_type": "U",
        "meta_norad_cat_id": 46277,
        "meta_element_set_no": 999,
        "meta_rev_at_epoch": 29455,
        "meta_bstar": 0.00019708433,
        "meta_mean_motion_dot": 7.908e-05,
        "meta_mean_motion_ddot": 0,
        "tle_line1": "1 46277U 20061F   25355.26907601  .00007908  00000+0  19708-3 0  9997",
        "tle_line2": "2 46277  97.2199  54.2589 0001334  52.1488 307.9879 15.40489229294559"
      },
      "geometry": {
        "type": "Point",
        "coordinates": [
          -86.3951600918416,
          78.6124198513813
        ]
      }
    },
    {
      "type": "Feature",
      "properties": {
        "norad_id": 46984,
        "name": "SENTINEL-6A",
        "group": "resource",
        "lat": -30.148874871417878,
        "lon": 128.91392502272134,
        "alt_km": 1339.482275860928,
        "timestamp": "2025-12-21T14:40:47.568514+00:00",
        "meta_object_name": "SENTINEL-6A",
        "meta_object_id": "2020-086A",
        "meta_epoch": "2025-12-21T03:36:37.810368",
        "meta_mean_motion": 12.80930855,
        "meta_eccentricity": 0.00077186,
        "meta_inclination": 66.0395,
        "meta_ra_of_asc_node": 144.8386,
        "meta_arg_of_pericenter": 269.3712,
        "meta_mean_anomaly": 90.6418,
        "meta_ephemeris_type": 0,
        "meta_classification_type": "U",
        "meta_norad_cat_id": 46984,
        "meta_element_set_no": 999,
        "meta_rev_at_epoch": 23752,
        "meta_bstar": -2.7850621e-05,
        "meta_mean_motion_dot": -6.7e-07,
        "meta_mean_motion_ddot": 0,
        "tle_line1": "1 46984U 20086A   25355.15043762 -.00000067  00000+0 -27851-4 0  9996",
        "tle_line2": "2 46984  66.0395 144.8386 0007718 269.3712  90.6418 12.80930855237527"
      },
      "geometry": {
        "type": "Point",
        "coordinates": [
          128.91392502272134,
          -30.148874871417878
        ]
      }
    },
    {
      "type": "Feature",
      "properties": {
        "norad_id": 48079,
        "name": "GAOFEN-12 02",
        "group": "resource",
        "lat": 80.12281565636098,
        "lon": -136.6973098631067,
        "alt_km": 617.3065072386507,
        "timestamp": "2025-12-21T14:40:47.568524+00:00",
        "meta_object_name": "GAOFEN-12 02",
        "meta_object_id": "2021-026A",
        "meta_epoch": "2025-12-21T06:08:22.947360",
        "meta_mean_motion": 14.80684539,
        "meta_eccentricity": 0.00036014,
        "meta_inclination": 97.9854,
        "meta_ra_of_asc_node": 349.2212,
        "meta_arg_of_pericenter": 84.0668,
        "meta_mean_anomaly": 276.0955,
        "meta_ephemeris_type": 0,
        "meta_classification_type": "U",
        "meta_norad_cat_id": 48079,
        "meta_element_set_no": 999,
        "meta_rev_at_epoch": 25543,
        "meta_bstar": 5.8645413e-05,
        "meta_mean_motion_dot": 3.98e-06,
        "meta_mean_motion_ddot": 0,
        "tle_line1": "1 48079U 21026A   25355.25582115  .00000398  00000+0  58645-4 0  9999",
        "tle_line2": "2 48079  97.9854 349.2212 0003601  84.0668 276.0955 14.80684539255438"
      },
      "geometry": {
        "type": "Point",
        "coordinates": [
          -136.6973098631067,
          80.12281565636098
        ]
      }
    },
    {
      "type": "Feature",
      "properties": {
        "norad_id": 48268,
        "name": "PLEIADES NEO 3",
        "group": "resource",
        "lat": -14.35403564055468,
        "lon": -114.1092432023341,
        "alt_km": 628.963742635955,
        "timestamp": "2025-12-21T14:40:47.568534+00:00",
        "meta_object_name": "PLEIADES NEO 3",
        "meta_object_id": "2021-034A",
        "meta_epoch": "2025-12-21T05:42:05.658336",
        "meta_mean_motion": 14.8167398,
        "meta_eccentricity": 0.0001367,
        "meta_inclination": 97.8951,
        "meta_ra_of_asc_node": 67.5571,
        "meta_arg_of_pericenter": 91.4531,
        "meta_mean_anomaly": 268.6838,
        "meta_ephemeris_type": 0,
        "meta_classification_type": "U",
        "meta_norad_cat_id": 48268,
        "meta_element_set_no": 999,
        "meta_rev_at_epoch": 25130,
        "meta_bstar": 5.9938339e-05,
        "meta_mean_motion_dot": 4.2e-06,
        "meta_mean_motion_ddot": 0,
        "tle_line1": "1 48268U 21034A   25355.23756549  .00000420  00000+0  59938-4 0  9992",
        "tle_line2": "2 48268  97.8951  67.5571 0001367  91.4531 268.6838 14.81673980251309"
      },
      "geometry": {
        "type": "Point",
        "coordinates": [
          -114.1092432023341,
          -14.35403564055468
        ]
      }
    },
    {
      "type": "Feature",
      "properties": {
        "norad_id": 49070,
        "name": "PLEIADES NEO 4",
        "group": "resource",
        "lat": 14.148951870499095,
        "lon": 65.9169770321775,
        "alt_km": 624.7788108328468,
        "timestamp": "2025-12-21T14:40:47.568544+00:00",
        "meta_object_name": "PLEIADES NEO 4",
        "meta_object_id": "2021-073E",
        "meta_epoch": "2025-12-20T17:32:43.601280",
        "meta_mean_motion": 14.81672177,
        "meta_eccentricity": 0.00013249,
        "meta_inclination": 97.8951,
        "meta_ra_of_asc_node": 67.0538,
        "meta_arg_of_pericenter": 89.6187,
        "meta_mean_anomaly": 270.5178,
        "meta_ephemeris_type": 0,
        "meta_classification_type": "U",
        "meta_norad_cat_id": 49070,
        "meta_element_set_no": 999,
        "meta_rev_at_epoch": 23494,
        "meta_bstar": -3.6645539e-05,
        "meta_mean_motion_dot": -3.4e-06,
        "meta_mean_motion_ddot": 0,
        "tle_line1": "1 49070U 21073E   25354.73106020 -.00000340  00000+0 -36646-4 0  9998",
        "tle_line2": "2 49070  97.8951  67.0538 0001324  89.6187 270.5178 14.81672177234945"
      },
      "geometry": {
        "type": "Point",
        "coordinates": [
          65.9169770321775,
          14.148951870499095
        ]
      }
    },
    {
      "type": "Feature",
      "properties": {
        "norad_id": 49260,
        "name": "LANDSAT 9",
        "group": "resource",
        "lat": -32.058742642383656,
        "lon": 68.78039220794751,
        "alt_km": 709.0310857502973,
        "timestamp": "2025-12-21T14:40:47.568554+00:00",
        "meta_object_name": "LANDSAT 9",
        "meta_object_id": "2021-088A",
        "meta_epoch": "2025-12-21T03:17:30.808032",
        "meta_mean_motion": 14.57105787,
        "meta_eccentricity": 0.0001103,
        "meta_inclination": 98.2083,
        "meta_ra_of_asc_node": 63.1261,
        "meta_arg_of_pericenter": 91.6147,
        "meta_mean_anomaly": 268.5177,
        "meta_ephemeris_type": 0,
        "meta_classification_type": "U",
        "meta_norad_cat_id": 49260,
        "meta_element_set_no": 999,
        "meta_rev_at_epoch": 22507,
        "meta_bstar": 7.8218881e-05,
        "meta_mean_motion_dot": 3.07e-06,
        "meta_mean_motion_ddot": 0,
        "tle_line1": "1 49260U 21088A   25355.13716213  .00000307  00000+0  78219-4 0  9994",
        "tle_line2": "2 49260  98.2083  63.1261 0001103  91.6147 268.5177 14.57105787225072"
      },
      "geometry": {
        "type": "Point",
        "coordinates": [
          68.78039220794751,
          -32.058742642383656
        ]
      }
    },
    {
      "type": "Feature",
      "properties": {
        "norad_id": 51444,
        "name": "CSG-2",
        "group": "resource",
        "lat": 61.28590837603237,
        "lon": 162.15576435564188,
        "alt_km": 615.6465100154273,
        "timestamp": "2025-12-21T14:40:47.568564+00:00",
        "meta_object_name": "CSG-2",
        "meta_object_id": "2022-008A",
        "meta_epoch": "2025-12-21T06:17:54.803904",
        "meta_mean_motion": 14.82150469,
        "meta_eccentricity": 0.00014499,
        "meta_inclination": 97.8798,
        "meta_ra_of_asc_node": 176.4564,
        "meta_arg_of_pericenter": 84.8007,
        "meta_mean_anomaly": 275.3372,
        "meta_ephemeris_type": 0,
        "meta_classification_type": "U",
        "meta_norad_cat_id": 51444,
        "meta_element_set_no": 999,
        "meta_rev_at_epoch": 21023,
        "meta_bstar": 3.280708e-05,
        "meta_mean_motion_dot": 2.09e-06,
        "meta_mean_motion_ddot": 0,
        "tle_line1": "1 51444U 22008A   25355.26243986  .00000209  00000+0  32807-4 0  9994",
        "tle_line2": "2 51444  97.8798 176.4564 0001449  84.8007 275.3372 14.82150469210233"
      },
      "geometry": {
        "type": "Point",
        "coordinates": [
          162.15576435564188,
          61.28590837603237
        ]
      }
    }
  ]
}